IRIDIUM 26              
1 24903U 97043A   25133.58141727  .00000440  00000+0  14156-3 0  9997
2 24903  86.3930 125.1615 0002250  94.2843 265.8611 14.37117337451779
IRIDIUM 22              
1 24907U 97043E   25133.48269319  .00000390  00000+0  12762-3 0  9993
2 24907  86.3937 128.7117 0002342  90.4281 269.7184 14.35934133451791
DUMMY MASS 1            
1 24925U 97048A   25133.55821703  .00000423  00000+0  44123-4 0  9991
2 24925  86.3347 151.3401 0004196 268.9523  91.1221 14.86959451499982
DUMMY MASS 2            
1 24926U 97048B   25133.51459795  .00000409  00000+0  42821-4 0  9993
2 24926  86.3348 152.9602 0005064 286.6264  73.4404 14.86712006499752
IRIDIUM 29              
1 24944U 97051A   25133.51786352  .00000421  00000+0  13717-3 0  9994
2 24944  86.3970 158.4361 0002426  87.3025 272.8450 14.36439201448293
IRIDIUM 33              
1 24946U 97051C   25133.53147596  .00000313  00000+0  10335-3 0  9992
2 24946  86.3884 157.6876 0007742 174.8478 185.2799 14.34872755447780
IRIDIUM 28              
1 24948U 97051E   25133.51383220  .00000366  00000+0  11588-3 0  9997
2 24948  86.3972 155.9750 0002220 102.8576 257.2870 14.37362799448931
IRIDIUM 36              
1 24967U 97056C   25133.55213714  .00000420  00000+0  13347-3 0  9993
2 24967  86.4013 187.5354 0002530  97.5899 262.5586 14.37583460447248
